#dP2021  1 22 18  0  0.00000000      96 __u+U ITR00 EXT  IAC
## 2141 496800.00000000   900.00000000 59236 0.7500000000000
+  113   C06C07C08C09C10C11C12C14C16C19C20C21C22C23C24C25C26
+        C27C28C29C30C32C33C34C35C36C37C38C39C40C43C44C45C46
+        E01E02E03E04E05E07E08E09E11E12E13E14E15E18E19E21E24
+        E25E26E27E30E31E33E36G01G02G03G04G05G06G07G08G09G10
+        G11G12G13G14G16G17G18G19G20G21G22G23G24G25G26G27G28
+        G29G30G31G32J01J02J03R01R02R03R04R05R07R08R09R11R12
+        R13R14R15R16R17R18R19R20R21R22R24  0  0  0  0  0  0
++        11  9 10 10  8  9  8  8 11  8  9  8  9 10  9 10  9
++        10  9  8  8  9  8 10  7  9  9 12  9  9 10 10 10 10
++         8  7  9  8  8  8  8  8  9 10  8  7  9  7  9  8  7
++         7  8  7  8  8  8  8  6  8  8  8  8  7  8  7  8  8
++         8  7  7  7  7  7  8  7  8  8  7  8  7  7  7  6  7
++         8  8  8  8 11  9  8  8  8  9  8  8  9  8  8  9 10
++         8  9  8  9  8  8 10  8  7  7  8  0  0  0  0  0  0
%c M  cc GPS ccc cccc cccc cccc cccc ccccc ccccc ccccc ccccc
%c cc cc ccc ccc cccc cccc cccc cccc ccccc ccccc ccccc ccccc
%f  0.0000000  0.000000000  0.00000000000  0.000000000000000
%f  0.0000000  0.000000000  0.00000000000  0.000000000000000
%i    0    0    0    0      0      0      0      0         0
%i    0    0    0    0      0      0      0      0         0
/* IAC                                ULTRA-RAPID PREDICTION
/* S/V CLOCKS ARE ALIGNED TO GNSS TIME                      
/* G:C1WC2W R:C1PC2P E:C1XC5X C:C2IC6I J:C1CC2S             
/* PCV:IGS14_2134 OL/AL:FES2004  NONE     YN ORB:CoN CLK:CoN
*  2021 01 23 12 30  0.00000000
PC06  -6236.746276  27448.643695 -30843.173954     28.751218
PC07 -20667.825980  26562.467001  25344.065504   -254.833735
PC08 -16688.768560  38546.228826   5619.778825   -926.345471
PC09   7326.441982  35139.467568 -21494.284452    783.891085
PC10  -7105.206683  27742.213556  31040.946120    -99.043388
PC11  19125.450235  14737.885605 -13958.052545   -905.863216
PC12  12408.563896  24822.194809   3078.566581    748.510767
PC14  25547.908090   5945.465405  -9576.031002    -32.383838
PC16  -4746.349885  27994.562743 -31029.423040   -669.371449
PC19 -27891.747414    460.463409    520.133408    701.306685
PC20 -20071.675953 -10638.983807  16204.563681   -910.300444
PC21   -109.318596  15893.681316 -22922.475660   -805.150797
PC22 -19725.258498  11597.227647 -15957.567071   -854.066713
PC23  17051.722561 -21111.315179   6482.214570   -879.328488
PC24   9322.948492  14995.034634  21604.615159   -746.575398
PC25  18831.794353  -5503.493088  19828.979388   -907.507450
PC26  -4161.840099  25211.687740  11251.624117    958.886834
PC27  -5162.199829 -24800.841158 -11739.808432    471.176089
PC28   9818.365566 -13649.331994 -22263.506763   -118.304356
PC29 -19199.616660  -4701.227122  19698.173127    342.462136
PC30 -17679.236591 -20974.767025   5193.639687    435.065140
PC32     35.850855 -15921.921260  22930.154546   -885.809364
PC33  27901.436967   -575.079951   -567.262295   -928.917950
PC34  17877.656410  20604.411793  -5821.607307   -756.648454
PC35  -9630.283808  13737.479737  22295.208616   -452.269606
PC36 -18888.303528   4759.337063 -19966.538054   -770.597172
PC37   5359.696414 -25248.126023 -10565.418202   -861.051318
PC38 -15379.728017  39157.812247   3678.480380    125.620281
PC39  -1547.804922  28997.093202 -30522.007002     27.717165
PC40 -15428.628497  22591.836439  32055.322053    124.145389
PC43  19355.278403   5182.482050 -19413.275671   -564.944956
PC44   5749.472464  24577.345745  11861.591142      1.278974
PC45 -16956.184640  21223.312246  -6452.564761    342.824884
PC46  -9895.752850 -14116.273254 -21934.728727    439.021525
PE01 -25034.287768   5038.854072 -14980.560426  -1030.779300
PE02  25047.699426  -5115.428452  14899.153816    193.123956
PE03  27501.705836   5575.184695   9431.814637   -390.509488
PE04 -17001.069797   9454.115288 -22310.792599   -694.725387
PE05  22007.292959  17546.537187  -9165.871738   -310.552457
PE07  -3727.912858 -19169.930500  22242.207847   -491.390489
PE08  16636.877389  -9626.336879  22509.339945   6057.801588
PE09   4067.005469  19067.552324 -22277.032238   5789.630286
PE11    511.578916  29401.350805   3317.831699   6427.287421
PE12 -11473.143301  18556.397400  20005.930500   5392.438271
PE13   -384.609377 -29367.340855  -3695.442337    410.779793
PE14  26784.803147   9296.534461 -12906.422421  -1304.638617
PE15  11298.990276 -18663.532444 -19991.176840    832.891318
PE18 -20095.729209 -15578.402298   2317.684233  -1425.964163
PE19 -27709.143971  -7318.200184  -7416.436041    185.559788
PE21 -13017.792489 -10823.617024 -24284.368237   -644.425065
PE24  -7663.095195  21068.397955  19330.979169   -704.787724
PE25  12840.081392  10969.863408  24312.943405   -524.916724
PE26 -12113.892211 -22310.164720  15231.157989   2232.393383
PE27   6919.686031 -20931.246567 -19743.211938     45.165701
PE30  23118.694135 -18237.334679  -2911.235274   3239.952081
PE31 -22674.809999  18686.714521   3634.278409   -477.616459
PE33 -16329.007992  -3020.010470  24517.151373   -465.091639
PE36  11805.651638  22796.152786 -14719.395155    450.423567
PG01 -13406.265585  15290.398750  16658.121118    775.193224
PG02  13658.757044   8882.485514 -20315.235642   -569.098622
PG03 -22283.769924  13274.934871  -5537.157274    -63.739008
PG04 -15311.997137   6233.823535 -20793.725373   -174.908883
PG05  23557.284484   -911.006869 -12567.121815    -31.745963
PG06   6542.434886  21520.662870 -14021.982445     -4.328016
PG07  -6321.333680  25193.243812  -3762.785242     32.280914
PG08 -20365.816822   -399.944346  17209.977784     -7.646326
PG09  -3921.988237  15753.036305 -21079.822807   -315.706817
PG10  -3119.030383 -14949.026919  21815.462912    -45.513390
PG11 -14586.892178   6671.139426  20732.839643    -45.055808
PG12  24539.203194  -9729.213078  -2266.383734      9.017837
PG13  21578.943114  11103.920020  10797.957348     89.048281
PG14    313.599303  15795.428595  21341.979122     89.536070
PG16 -23151.198722  -2362.879879 -13454.608470   -269.277227
PG17  11584.112684  20824.221342  12170.043652    383.843587
PG18   5111.083079 -25991.107882  -1471.872541    343.199905
PG19  17053.645409  19963.241928   4025.075467    -48.142853
PG20   8792.733860 -18960.127877  16174.687985    525.039150
PG21 -15426.740282   6697.437086  21208.037502     89.301265
PG22 -24388.151602   9607.696411   3878.458575   -693.079703
PG23   8805.047757 -17491.276335  17901.613856    117.053062
PG24  14723.846241 -10748.258752  18945.715937      3.301364
PG25  15309.692112 -16734.639308 -13842.134875     65.618953
PG26 -15310.325962  -8859.424255 -19934.636231     34.176921
PG27 -22964.555784 -11691.071597   7019.555888    -61.795187
PG28   3404.139116  14815.988133  22351.338940    625.778780
PG29   5342.318683 -14486.930790 -21643.044028   -281.213470
PG30   1142.938404  25460.888453   7104.880660   -373.434430
PG31  -8320.763670 -19343.469360 -15976.511785    -95.639228
PG32 -13627.177445 -20105.902542  11033.199162     15.721143
PJ01 -31709.647603  15387.384662 -18498.079045   -337.475521
PJ02 -29631.650333  29998.584344   4221.875013      1.016672
PJ03 -24483.075856  24541.640402  29137.773029     -0.221509
PR01  -3940.446139 -11477.189356  22433.336277     73.911492
PR02 -22452.091241  -8126.299993   9097.443672    464.047300
PR03 -24119.878458    105.125750  -8344.345031     29.668005
PR04 -12096.663444   7982.394452 -20969.640103     71.147327
PR05   6597.547532  11451.380989 -21804.820351     65.255572
PR07  23826.822290   -473.626707   9064.529154    -42.237370
PR08  12040.344211  -8146.658382  21004.467527    -56.994510
PR09  10519.074548   4763.479886  22762.384597     20.151678
PR11  15025.483482 -20526.610719  -1930.561973      4.254804
PR12   3520.520274 -17847.985127 -17845.375707    199.015681
PR13  -9980.466069  -5029.142669 -22949.278518    -49.696324
PR14 -17898.346292  11134.650036 -14351.588532     60.169679
PR15 -15156.620896  20390.399189   2337.582303    105.769872
PR16  -2432.046826  17655.226131  18284.181797    -10.496661
PR17 -11393.120872   -806.318395  22819.582705    393.748652
PR18  -3670.974530  15706.301321  19762.570131     64.147821
PR19   5028.101284  24062.386496   6822.460774   -129.071611
PR20  12250.504266  18302.139879 -12816.145726   -431.754996
PR21  10971.018886   -274.930632 -23021.027592   -182.422380
PR22   2998.705853 -16712.833732 -19081.992207    -94.011352
PR24 -12864.379248 -17535.120484  13345.326535     28.844266
EOF
